ONEWEB-0645             
1 55809U 23029P   25060.97839086  .00000057  00000+0  10880-3 0  9997
2 55809  87.9187  38.8425 0002142  90.5174 269.6204 13.19727072 97312
ONEWEB-0646             
1 55810U 23029Q   25060.93257559  .00000099  00000+0  21477-3 0  9994
2 55810  87.9184  38.8468 0002169  79.9480 280.1897 13.19728446 96601
ONEWEB-0648             
1 55811U 23029R   25060.80153312  .00000227  00000+0  57743-3 0  9991
2 55811  87.9049  23.6305 0002851  86.2186 273.9270 13.14500951 97336
ONEWEB-0649             
1 55812U 23029S   25060.97129123  .00000036  00000+0  56327-4 0  9999
2 55812  87.9187  38.8302 0002423  86.2848 273.8562 13.19723961 97331
ONEWEB-0650             
1 55813U 23029T   25060.96655475  .00000053  00000+0  10002-3 0  9991
2 55813  87.9187  38.8384 0002127  82.6300 277.5074 13.19724593 97304
ONEWEB-0652             
1 55814U 23029U   25060.93474048 -.00000004  00000+0 -44860-4 0  9992
2 55814  87.9048  23.6145 0001705  81.0430 279.0892 13.14503163 97326
ONEWEB-0653             
1 55815U 23029V   25060.91886895 -.00000364  00000+0 -10166-2 0  9997
2 55815  87.9052  23.6038 0001778  87.8815 272.2518 13.14501257 97359
ONEWEB-0654             
1 55816U 23029W   25060.83799289 -.00000174  00000+0 -50292-3 0  9993
2 55816  87.9049  23.6234 0001434  86.9473 273.1821 13.14500902 97367
